NORAD_CAT_ID,OBJECT_NAME,OBJECT_TYPE,EPOCH,MEAN_MOTION,ECCENTRICITY,INCLINATION,RA_OF_ASC_NODE,ARG_OF_PERICENTER,MEAN_ANOMALY,BSTAR,MEAN_MOTION_DOT,MEAN_MOTION_DDOT,TLE_LINE0,TLE_LINE1,TLE_LINE2,SEMIMAJOR_AXIS,PERIOD,APOGEE,PERIGEE,DECAYED
54192.0,STARLINK-5268,PAYLOAD,2024-06-16 18:22:23,15.08842464,0.0001358,53.2168,306.1774,73.8611,286.253,2.8311e-05,1.63e-06,0.0,0 STARLINK-5268,1 54192U 22141AM  24168.76555010  .00000163  00000-0  28311-4 0  9990,2 54192  53.2168 306.1774 0001358  73.8611 286.2530 15.08842464 90758,6917.873,95.437,540.677,538.798,0.0
54192.0,STARLINK-5268,PAYLOAD,2024-06-17 15:02:24,15.08838211,0.0001186,53.2174,302.3134,89.1324,270.9805,3.4785e-05,2.66e-06,0.0,0 STARLINK-5268,1 54192U 22141AM  24169.62667623  .00000266  00000-0  34785-4 0  9996,2 54192  53.2174 302.3134 0001186  89.1324 270.9805 15.08838211 90887,6917.886,95.438,540.571,538.93,0.0
54192.0,STARLINK-5268,PAYLOAD,2024-06-18 08:31:39,15.08837438,0.0001238,53.216,299.0409,89.5982,270.5152,0.00011281,1.508e-05,0.0,0 STARLINK-5268,1 54192U 22141AM  24170.35531585  .00001508  00000-0  11281-3 0  9990,2 54192  53.2160 299.0409 0001238  89.5982 270.5152 15.08837438 91221,6917.888,95.438,540.61,538.897,0.0
54192.0,STARLINK-5268,PAYLOAD,2024-06-18 14:53:11,15.08846196,0.0001117,53.2166,297.852,100.2404,259.8714,7.0037e-05,8.27e-06,0.0,0 STARLINK-5268,1 54192U 22141AM  24170.62027130  .00000827  00000-0  70037-4 0  9994,2 54192  53.2166 297.8520 0001117 100.2404 259.8714 15.08846196 91037,6917.861,95.437,540.499,538.954,0.0
54192.0,STARLINK-5268,PAYLOAD,2024-06-19 02:00:53,15.08847297,0.0001119,53.2166,295.7709,94.5786,265.5334,7.2697e-05,8.7e-06,0.0,0 STARLINK-5268,1 54192U 22141AM  24171.08394971  .00000870  00000-0  72697-4 0  9997,2 54192  53.2166 295.7709 0001119  94.5786 265.5334 15.08847297 91331,6917.858,95.437,540.497,538.949,0.0
54192.0,STARLINK-5268,PAYLOAD,2024-06-19 13:08:35,15.08838745,0.0001268,53.2178,293.6903,90.7025,269.4112,0.00012696,1.733e-05,0.0,0 STARLINK-5268,1 54192U 22141AM  24171.54763585  .00001733  00000-0  12696-3 0  9990,2 54192  53.2178 293.6903 0001268  90.7025 269.4112 15.08838745 91409,6917.884,95.438,540.626,538.872,0.0
54192.0,STARLINK-5268,PAYLOAD,2024-06-19 14:44:00,15.08789096,0.000155,53.2179,293.3917,95.2061,264.9108,0.00094,0.00014683,0.0,0 STARLINK-5268,1 54192U 22141AM  24171.61389226  .00014683  00000-0  94000-3 0  9991,2 54192  53.2179 293.3917 0001550  95.2061 264.9108 15.08789096 91180,6918.036,95.441,540.973,538.829,0.0
54192.0,STARLINK-5268,PAYLOAD,2024-06-19 17:54:44,15.0884255,0.0001356,53.218,292.7962,101.4355,258.679,0.00018537,2.664e-05,0.0,0 STARLINK-5268,1 54192U 22141AM  24171.74635227  .00002664  00000-0  18537-3 0  9997,2 54192  53.2180 292.7962 0001356 101.4355 258.6790 15.08842550 91200,6917.873,95.437,540.676,538.8,0.0
54192.0,STARLINK-5268,PAYLOAD,2024-06-20 14:34:45,15.08842306,0.0001349,53.2187,288.9316,97.3366,262.778,3.4726e-05,2.65e-06,0.0,0 STARLINK-5268,1 54192U 22141AM  24172.60747463  .00000265  00000-0  34726-4 0  9993,2 54192  53.2187 288.9316 0001349  97.3366 262.7780 15.08842306 91332,6917.873,95.437,540.672,538.805,0.0
54192.0,STARLINK-5268,PAYLOAD,2024-06-21 14:25:32,15.0883967,0.000131,53.2184,284.4679,99.0688,261.0452,2.333e-05,8.3e-07,0.0,0 STARLINK-5268,1 54192U 22141AM  24173.60107631  .00000083  00000-0  23330-4 0  9998,2 54192  53.2184 284.4679 0001310  99.0688 261.0452 15.08839670 91480,6917.881,95.438,540.653,538.84,0.0
54192.0,STARLINK-5268,PAYLOAD,2024-06-22 12:40:57,15.08835037,0.0001346,53.2187,280.3096,91.5997,268.515,4.4288e-05,4.17e-06,0.0,0 STARLINK-5268,1 54192U 22141AM  24174.52844227  .00000417  00000-0  44288-4 0  9995,2 54192  53.2187 280.3096 0001346  91.5997 268.5150 15.08835037 91851,6917.896,95.438,540.692,538.829,0.0
54192.0,STARLINK-5268,PAYLOAD,2024-06-23 14:07:07,15.0884221,0.0001345,53.2184,275.5519,74.2496,285.8645,0.00011111,1.481e-05,0.0,0 STARLINK-5268,1 54192U 22141AM  24175.58827887  .00001481  00000-0  11111-3 0  9995,2 54192  53.2184 275.5519 0001345  74.2496 285.8645 15.08842210 91789,6917.874,95.437,540.669,538.808,0.0
54192.0,STARLINK-5268,PAYLOAD,2024-06-23 17:17:53,15.08845535,0.0001331,53.2183,274.9557,83.7919,276.3225,0.0001354,1.868e-05,0.0,0 STARLINK-5268,1 54192U 22141AM  24175.72075552  .00001868  00000-0  13540-3 0  9992,2 54192  53.2183 274.9557 0001331  83.7919 276.3225 15.08845535 92034,6917.863,95.437,540.649,538.808,0.0
54192.0,STARLINK-5268,PAYLOAD,2024-06-24 12:22:31,15.08842613,0.0001343,53.2181,271.387,88.7814,271.3332,0.00010034,1.309e-05,0.0,0 STARLINK-5268,1 54192U 22141AM  24176.51563797  .00001309  00000-0  10034-3 0  9998,2 54192  53.2181 271.3870 0001343  88.7814 271.3332 15.08842613 92154,6917.872,95.437,540.666,538.808,0.0
54192.0,STARLINK-5268,PAYLOAD,2024-06-24 13:57:54,15.08844473,0.000136,53.218,271.0884,65.754,294.3594,0.00012751,1.742e-05,0.0,0 STARLINK-5268,1 54192U 22141AM  24176.58187686  .00001742  00000-0  12751-3 0  9993,2 54192  53.2180 271.0884 0001360  65.7540 294.3594 15.08844473 91931,6917.867,95.437,540.673,538.791,0.0
54192.0,STARLINK-5268,PAYLOAD,2024-06-25 13:48:41,15.0884602,0.0001503,53.2189,266.6289,68.7102,291.4051,6.4e-06,-1.86e-06,0.0,0 STARLINK-5268,1 54192U 22141AM  24177.57547849 -.00000186  00000-0  64000-5 0  9992,2 54192  53.2189 266.6289 0001503  68.7102 291.4051 15.08846020 92088,6917.862,95.437,540.767,538.687,0.0
54192.0,STARLINK-5268,PAYLOAD,2024-06-26 12:04:04,15.08846747,0.0001713,53.2181,262.4645,60.001,300.1152,3.688e-05,2.99e-06,0.0,0 STARLINK-5268,1 54192U 22141AM  24178.50283558  .00000299  00000-0  36880-4 0  9998,2 54192  53.2181 262.4645 0001713  60.0010 300.1152 15.08846747 92228,6917.86,95.437,540.91,538.54,0.0
54192.0,STARLINK-5268,PAYLOAD,2024-06-27 11:54:52,15.08839741,0.0001212,53.2161,258.0037,103.1387,256.974,2.9997e-05,1.9e-06,0.0,0 STARLINK-5268,1 54192U 22141AM  24179.49643733  .00000190  00000-0  29997-4 0  9993,2 54192  53.2161 258.0037 0001212 103.1387 256.9740 15.08839741 92601,6917.881,95.438,540.585,538.908,0.0
54192.0,STARLINK-5268,PAYLOAD,2024-06-28 11:45:39,15.08842499,0.0001148,53.2154,253.5493,85.2268,274.8855,7.2869e-05,8.72e-06,0.0,0 STARLINK-5268,1 54192U 22141AM  24180.49003615  .00000872  00000-0  72869-4 0  9997,2 54192  53.2154 253.5493 0001148  85.2268 274.8855 15.08842499 92526,6917.873,95.437,540.532,538.944,0.0
54192.0,STARLINK-5268,PAYLOAD,2024-06-29 05:14:54,15.08831753,0.0001286,53.2164,250.2733,91.4174,268.6965,2.098e-05,4.6e-07,0.0,0 STARLINK-5268,1 54192U 22141AM  24181.21868701  .00000046  00000-0  20980-4 0  9993,2 54192  53.2164 250.2733 0001286  91.4174 268.6965 15.08831753 92867,6917.906,95.438,540.66,538.881,0.0
54192.0,STARLINK-5268,PAYLOAD,2024-06-29 11:36:27,15.08833619,0.0001209,53.2161,249.0849,89.8635,270.2495,1.5843e-05,-3.6e-07,0.0,0 STARLINK-5268,1 54192U 22141AM  24181.48364718 -.00000036  00000-0  15843-4 0  9993,2 54192  53.2161 249.0849 0001209  89.8635 270.2495 15.08833619 92675,6917.9,95.438,540.601,538.929,0.0
54192.0,STARLINK-5268,PAYLOAD,2024-06-30 11:27:14,15.08836959,0.0001241,53.2159,244.6267,101.5467,258.5665,-2.3482e-05,-6.62e-06,0.0,0 STARLINK-5268,1 54192U 22141AM  24182.47725141 -.00000662  00000-0 -23482-4 0  9998,2 54192  53.2159 244.6267 0001241 101.5467 258.5665 15.08836959 93059,6917.89,95.438,540.613,538.896,0.0
54192.0,STARLINK-5268,PAYLOAD,2024-06-30 20:59:33,15.08841051,0.0001218,53.2159,242.8415,95.3899,264.7232,-1.6633e-06,-3.14e-06,0.0,0 STARLINK-5268,1 54192U 22141AM  24182.87468893 -.00000314  00000-0 -16633-5 0  9995,2 54192  53.2159 242.8415 0001218  95.3899 264.7232 15.08841051 92885,6917.877,95.437,540.585,538.9,0.0
54192.0,STARLINK-5268,PAYLOAD,2024-07-01 12:53:24,15.08842859,0.0001279,53.2162,239.8681,99.1676,260.9461,0.00015391,2.163e-05,0.0,0 STARLINK-5268,1 54192U 22141AM  24183.53708665  .00002163  00000-0  15391-3 0  9993,2 54192  53.2162 239.8681 0001279  99.1676 260.9461 15.08842859 93219,6917.872,95.437,540.621,538.852,0.0
54192.0,STARLINK-5268,PAYLOAD,2024-07-01 20:50:20,15.08839932,0.0001274,53.2161,238.3784,82.9847,277.129,0.00012354,1.679e-05,0.0,0 STARLINK-5268,1 54192U 22141AM  24183.86828961  .00001679  00000-0  12354-3 0  9998,2 54192  53.2161 238.3784 0001274  82.9847 277.1290 15.08839932 93039,6917.881,95.438,540.627,538.864,0.0
54192.0,STARLINK-5268,PAYLOAD,2024-07-02 12:44:11,15.08843584,0.0001324,53.2161,235.4041,78.4871,281.6269,4.0222e-05,3.52e-06,0.0,0 STARLINK-5268,1 54192U 22141AM  24184.53069055  .00000352  00000-0  40222-4 0  9997,2 54192  53.2161 235.4041 0001324  78.4871 281.6269 15.08843584 93366,6917.869,95.437,540.65,538.819,0.0
54192.0,STARLINK-5268,PAYLOAD,2024-07-03 20:31:54,15.08842915,0.0001257,53.2161,229.4556,94.5152,265.5983,1.1003e-05,-1.13e-06,0.0,0 STARLINK-5268,1 54192U 22141AM  24185.85548921 -.00000113  00000-0  11003-4 0  9998,2 54192  53.2161 229.4556 0001257  94.5152 265.5983 15.08842915 93569,6917.871,95.437,540.606,538.867,0.0
54192.0,STARLINK-5268,PAYLOAD,2024-07-04 09:14:59,15.08838512,0.0001285,53.2159,227.0779,94.1702,265.9437,2.0647e-06,-2.55e-06,0.0,0 STARLINK-5268,1 54192U 22141AM  24186.38541252 -.00000255  00000-0  20647-5 0  9999,2 54192  53.2159 227.0779 0001285  94.1702 265.9437 15.08838512 93415,6917.885,95.438,540.639,538.861,0.0
54192.0,STARLINK-5268,PAYLOAD,2024-07-05 02:44:13,15.08843251,0.0001345,53.2165,223.8069,95.8562,264.2584,4.684e-05,4.58e-06,0.0,0 STARLINK-5268,1 54192U 22141AM  24187.11404779  .00000458  00000-0  46840-4 0  9999,2 54192  53.2165 223.8069 0001345  95.8562 264.2584 15.08843251 93755,6917.87,95.437,540.666,538.805,0.0
54192.0,STARLINK-5268,PAYLOAD,2024-07-05 09:05:45,15.08846236,0.0001333,53.2162,222.618,93.7864,266.3281,6.7319e-05,7.84e-06,0.0,0 STARLINK-5268,1 54192U 22141AM  24187.37900451  .00000784  00000-0  67319-4 0  9991,2 54192  53.2162 222.6180 0001333  93.7864 266.3281 15.08846236 93564,6917.861,95.437,540.648,538.804,0.0
